{"fetched_at":"2026-07-12T07:15:20.031Z","source":"https://celestrak.org/NORAD/elements/gp.php?GROUP=oneweb&FORMAT=JSON","constellation":"oneweb","records":[{"OBJECT_NAME":"ONEWEB-0258","OBJECT_ID":"2021-060K","EPOCH":"2026-07-11T13:48:32.338656","CLASSIFICATION_TYPE":"U","MEAN_MOTION":13.16593755,"ECCENTRICITY":0.00021313,"INCLINATION":87.9081,"RA_OF_ASC_NODE":223.9392,"ARG_OF_PERICENTER":94.2107,"MEAN_ANOMALY":265.9268,"EPHEMERIS_TYPE":0,"NORAD_CAT_ID":48976,"ELEMENT_SET_NO":999,"REV_AT_EPOCH":24280,"BSTAR":-0.000073780353,"MEAN_MOTION_DOT":-1.5e-7,"MEAN_MOTION_DDOT":0},{"OBJECT_NAME":"ONEWEB-0259","OBJECT_ID":"2021-060L","EPOCH":"2026-07-11T15:28:51.205440","CLASSIFICATION_TYPE":"U","MEAN_MOTION":13.1659455,"ECCENTRICITY":0.00021975,"INCLINATION":87.9079,"RA_OF_ASC_NODE":223.924,"ARG_OF_PERICENTER":96.3564,"MEAN_ANOMALY":263.7818,"EPHEMERIS_TYPE":0,"NORAD_CAT_ID":48977,"ELEMENT_SET_NO":999,"REV_AT_EPOCH":24284,"BSTAR":-0.000057453192,"MEAN_MOTION_DOT":-9e-8,"MEAN_MOTION_DDOT":0},{"OBJECT_NAME":"ONEWEB-0260","OBJECT_ID":"2021-060M","EPOCH":"2026-07-11T15:16:17.628096","CLASSIFICATION_TYPE":"U","MEAN_MOTION":13.16595533,"ECCENTRICITY":0.00016799,"INCLINATION":87.9073,"RA_OF_ASC_NODE":223.9265,"ARG_OF_PERICENTER":90.9032,"MEAN_ANOMALY":269.2291,"EPHEMERIS_TYPE":0,"NORAD_CAT_ID":48978,"ELEMENT_SET_NO":999,"REV_AT_EPOCH":24282,"BSTAR":0.000016600557,"MEAN_MOTION_DOT":1.9e-7,"MEAN_MOTION_DDOT":0},{"OBJECT_NAME":"ONEWEB-0261","OBJECT_ID":"2021-060N","EPOCH":"2026-07-11T14:33:00.157248","CLASSIFICATION_TYPE":"U","MEAN_MOTION":13.16593493,"ECCENTRICITY":0.00019867,"INCLINATION":87.9072,"RA_OF_ASC_NODE":223.9336,"ARG_OF_PERICENTER":104.7397,"MEAN_ANOMALY":255.3954,"EPHEMERIS_TYPE":0,"NORAD_CAT_ID":48979,"ELEMENT_SET_NO":999,"REV_AT_EPOCH":24287,"BSTAR":0.00036048472,"MEAN_MOTION_DOT":0.00000151,"MEAN_MOTION_DDOT":0},{"OBJECT_NAME":"ONEWEB-0262","OBJECT_ID":"2021-060P","EPOCH":"2026-07-11T14:04:29.747424","CLASSIFICATION_TYPE":"U","MEAN_MOTION":13.16594179,"ECCENTRICITY":0.00022404,"INCLINATION":87.9075,"RA_OF_ASC_NODE":223.9235,"ARG_OF_PERICENTER":97.3343,"MEAN_ANOMALY":262.8043,"EPHEMERIS_TYPE":0,"NORAD_CAT_ID":48980,"ELEMENT_SET_NO":999,"REV_AT_EPOCH":24283,"BSTAR":0.00011233593,"MEAN_MOTION_DOT":5.6e-7,"MEAN_MOTION_DDOT":0},{"OBJECT_NAME":"ONEWEB-0263","OBJECT_ID":"2021-060Q","EPOCH":"2026-07-11T14:50:05.558496","CLASSIFICATION_TYPE":"U","MEAN_MOTION":13.16593657,"ECCENTRICITY":0.00021062,"INCLINATION":87.9081,"RA_OF_ASC_NODE":223.9289,"ARG_OF_PERICENTER":104.877,"MEAN_ANOMALY":255.2594,"EPHEMERIS_TYPE":0,"NORAD_CAT_ID":48981,"ELEMENT_SET_NO":999,"REV_AT_EPOCH":24280,"BSTAR":0.00032166536,"MEAN_MOTION_DOT":0.00000136,"MEAN_MOTION_DDOT":0},{"OBJECT_NAME":"ONEWEB-0264","OBJECT_ID":"2021-060R","EPOCH":"2026-07-11T13:54:12.631104","CLASSIFICATION_TYPE":"U","MEAN_MOTION":13.16592262,"ECCENTRICITY":0.00019248,"INCLINATION":87.907,"RA_OF_ASC_NODE":223.9395,"ARG_OF_PERICENTER":99.0645,"MEAN_ANOMALY":261.0704,"EPHEMERIS_TYPE":0,"NORAD_CAT_ID":48982,"ELEMENT_SET_NO":999,"REV_AT_EPOCH":24280,"BSTAR":-0.000093713498,"MEAN_MOTION_DOT":-2.3e-7,"MEAN_MOTION_DDOT":0},{"OBJECT_NAME":"ONEWEB-0266","OBJECT_ID":"2021-060T","EPOCH":"2026-07-11T14:25:00.438528","CLASSIFICATION_TYPE":"U","MEAN_MOTION":13.16594537,"ECCENTRICITY":0.00022092,"INCLINATION":87.9081,"RA_OF_ASC_NODE":223.9257,"ARG_OF_PERICENTER":90.5047,"MEAN_ANOMALY":269.6337,"EPHEMERIS_TYPE":0,"NORAD_CAT_ID":48984,"ELEMENT_SET_NO":999,"REV_AT_EPOCH":24279,"BSTAR":-0.000063301448,"MEAN_MOTION_DOT":-1.1e-7,"MEAN_MOTION_DDOT":0},{"OBJECT_NAME":"ONEWEB-0267","OBJECT_ID":"2021-060U","EPOCH":"2026-07-11T14:40:58.567008","CLASSIFICATION_TYPE":"U","MEAN_MOTION":13.16593995,"ECCENTRICITY":0.00019539,"INCLINATION":87.908,"RA_OF_ASC_NODE":223.9207,"ARG_OF_PERICENTER":100.3249,"MEAN_ANOMALY":259.8102,"EPHEMERIS_TYPE":0,"NORAD_CAT_ID":48985,"ELEMENT_SET_NO":999,"REV_AT_EPOCH":24280,"BSTAR":0.0004482846,"MEAN_MOTION_DOT":0.00000184,"MEAN_MOTION_DDOT":0},{"OBJECT_NAME":"ONEWEB-0268","OBJECT_ID":"2021-060V","EPOCH":"2026-07-11T13:55:22.527840","CLASSIFICATION_TYPE":"U","MEAN_MOTION":13.16593472,"ECCENTRICITY":0.00019432,"INCLINATION":87.908,"RA_OF_ASC_NODE":223.9363,"ARG_OF_PERICENTER":91.4238,"MEAN_ANOMALY":268.7116,"EPHEMERIS_TYPE":0,"NORAD_CAT_ID":48986,"ELEMENT_SET_NO":999,"REV_AT_EPOCH":24306,"BSTAR":0.00019355577,"MEAN_MOTION_DOT":8.7e-7,"MEAN_MOTION_DDOT":0},{"OBJECT_NAME":"ONEWEB-0269","OBJECT_ID":"2021-060W","EPOCH":"2026-07-11T13:28:01.056576","CLASSIFICATION_TYPE":"U","MEAN_MOTION":13.16594025,"ECCENTRICITY":0.00020114,"INCLINATION":87.9078,"RA_OF_ASC_NODE":223.9406,"ARG_OF_PERICENTER":88.6979,"MEAN_ANOMALY":271.4383,"EPHEMERIS_TYPE":0,"NORAD_CAT_ID":48987,"ELEMENT_SET_NO":999,"REV_AT_EPOCH":24283,"BSTAR":0.000040790713,"MEAN_MOTION_DOT":2.8e-7,"MEAN_MOTION_DDOT":0},{"OBJECT_NAME":"ONEWEB-0270","OBJECT_ID":"2021-060X","EPOCH":"2026-07-11T13:53:05.982144","CLASSIFICATION_TYPE":"U","MEAN_MOTION":13.1659381,"ECCENTRICITY":0.00023023,"INCLINATION":87.9081,"RA_OF_ASC_NODE":223.9389,"ARG_OF_PERICENTER":102.7048,"MEAN_ANOMALY":257.434,"EPHEMERIS_TYPE":0,"NORAD_CAT_ID":48988,"ELEMENT_SET_NO":999,"REV_AT_EPOCH":24287,"BSTAR":-0.00014004656,"MEAN_MOTION_DOT":-4.1e-7,"MEAN_MOTION_DDOT":0},{"OBJECT_NAME":"ONEWEB-0271","OBJECT_ID":"2021-060Y","EPOCH":"2026-07-11T15:24:17.762400","CLASSIFICATION_TYPE":"U","MEAN_MOTION":13.16594378,"ECCENTRICITY":0.00020829,"INCLINATION":87.9082,"RA_OF_ASC_NODE":223.9145,"ARG_OF_PERICENTER":100.4334,"MEAN_ANOMALY":259.7032,"EPHEMERIS_TYPE":0,"NORAD_CAT_ID":48989,"ELEMENT_SET_NO":999,"REV_AT_EPOCH":24288,"BSTAR":0.000019726763,"MEAN_MOTION_DOT":2e-7,"MEAN_MOTION_DDOT":0},{"OBJECT_NAME":"ONEWEB-0272","OBJECT_ID":"2021-060Z","EPOCH":"2026-07-11T14:06:46.575648","CLASSIFICATION_TYPE":"U","MEAN_MOTION":13.16595198,"ECCENTRICITY":0.00018144,"INCLINATION":87.9072,"RA_OF_ASC_NODE":223.9371,"ARG_OF_PERICENTER":96.6039,"MEAN_ANOMALY":263.5299,"EPHEMERIS_TYPE":0,"NORAD_CAT_ID":48990,"ELEMENT_SET_NO":999,"REV_AT_EPOCH":24282,"BSTAR":-0.000010888846,"MEAN_MOTION_DOT":9e-8,"MEAN_MOTION_DDOT":0},{"OBJECT_NAME":"ONEWEB-0273","OBJECT_ID":"2021-060AA","EPOCH":"2026-07-11T14:38:41.487360","CLASSIFICATION_TYPE":"U","MEAN_MOTION":13.1659369,"ECCENTRICITY":0.00021094,"INCLINATION":87.9081,"RA_OF_ASC_NODE":223.9326,"ARG_OF_PERICENTER":100.7598,"MEAN_ANOMALY":259.3771,"EPHEMERIS_TYPE":0,"NORAD_CAT_ID":48991,"ELEMENT_SET_NO":999,"REV_AT_EPOCH":24280,"BSTAR":0.00017333066,"MEAN_MOTION_DOT":7.9e-7,"MEAN_MOTION_DDOT":0},{"OBJECT_NAME":"ONEWEB-0274","OBJECT_ID":"2021-060AB","EPOCH":"2026-07-11T15:15:09.569952","CLASSIFICATION_TYPE":"U","MEAN_MOTION":13.16595642,"ECCENTRICITY":0.00017024,"INCLINATION":87.907,"RA_OF_ASC_NODE":223.9278,"ARG_OF_PERICENTER":93.7646,"MEAN_ANOMALY":266.368,"EPHEMERIS_TYPE":0,"NORAD_CAT_ID":48992,"ELEMENT_SET_NO":999,"REV_AT_EPOCH":24284,"BSTAR":-0.00010067889,"MEAN_MOTION_DOT":-2.6e-7,"MEAN_MOTION_DDOT":0}]}
