ONEWEB-0258             
1 48976U 21060K   26192.57537429 -.00000015  00000+0 -73780-4 0  9991
2 48976  87.9081 223.9392 0002131  94.2107 265.9268 13.16593755242808
ONEWEB-0259             
1 48977U 21060L   26192.64503710 -.00000009  00000+0 -57453-4 0  9998
2 48977  87.9079 223.9240 0002197  96.3564 263.7818 13.16594550242845
ONEWEB-0260             
1 48978U 21060M   26192.63631514  .00000019  00000+0  16601-4 0  9991
2 48978  87.9073 223.9265 0001679  90.9032 269.2291 13.16595533242827
ONEWEB-0261             
1 48979U 21060N   26192.60625182  .00000151  00000+0  36048-3 0  9996
2 48979  87.9072 223.9336 0001986 104.7397 255.3954 13.16593493242875
ONEWEB-0262             
1 48980U 21060P   26192.58645541  .00000056  00000+0  11234-3 0  9990
2 48980  87.9075 223.9235 0002240  97.3343 262.8043 13.16594179242830
ONEWEB-0263             
1 48981U 21060Q   26192.61811989  .00000136  00000+0  32167-3 0  9993
2 48981  87.9081 223.9289 0002106 104.8770 255.2594 13.16593657242800
ONEWEB-0264             
1 48982U 21060R   26192.57931286 -.00000023  00000+0 -93713-4 0  9994
2 48982  87.9070 223.9395 0001924  99.0645 261.0704 13.16592262242809
ONEWEB-0266             
1 48984U 21060T   26192.60069952 -.00000011  00000+0 -63301-4 0  9999
2 48984  87.9081 223.9257 0002209  90.5047 269.6337 13.16594537242790
ONEWEB-0267             
1 48985U 21060U   26192.61178897  .00000184  00000+0  44828-3 0  9991
2 48985  87.9080 223.9207 0001953 100.3249 259.8102 13.16593995242804
ONEWEB-0268             
1 48986U 21060V   26192.58012185  .00000087  00000+0  19356-3 0  9995
2 48986  87.9080 223.9363 0001943  91.4238 268.7116 13.16593472243068
ONEWEB-0269             
1 48987U 21060W   26192.56112334  .00000028  00000+0  40791-4 0  9994
2 48987  87.9078 223.9406 0002011  88.6979 271.4383 13.16594025242837
ONEWEB-0270             
1 48988U 21060X   26192.57854146 -.00000041  00000+0 -14005-3 0  9995
2 48988  87.9081 223.9389 0002302 102.7048 257.4340 13.16593810242872
ONEWEB-0271             
1 48989U 21060Y   26192.64187225  .00000020  00000+0  19727-4 0  9993
2 48989  87.9082 223.9145 0002082 100.4334 259.7032 13.16594378242886
ONEWEB-0272             
1 48990U 21060Z   26192.58803907  .00000009  00000+0 -10889-4 0  9998
2 48990  87.9072 223.9371 0001814  96.6039 263.5299 13.16595198242821
ONEWEB-0273             
1 48991U 21060AA  26192.61020240  .00000079  00000+0  17333-3 0  9990
2 48991  87.9081 223.9326 0002109 100.7598 259.3771 13.16593690242808
ONEWEB-0274             
1 48992U 21060AB  26192.63552743 -.00000026  00000+0 -10068-3 0  9993
2 48992  87.9070 223.9278 0001702  93.7646 266.3680 13.16595642242846
